{"epoch":1784799577,"count":18318,"objects":[{"id":"62930","name":"KINEIS-2D","type":"PAYLOAD","l1":"1 62930U 25028C   26203.58142117  .00001186  00000-0  18046-3 0  9997","l2":"2 62930  97.9267 255.3441 0004794  93.5524 266.6234 14.75784407 77930"},{"id":"62931","name":"KINEIS-2E","type":"PAYLOAD","l1":"1 62931U 25028D   26203.58693276  .00001028  00000-0  15258-3 0  9992","l2":"2 62931  97.8936 254.4647 0002062  88.6066 271.5380 14.77101092 78004"},{"id":"62932","name":"KINEIS-2A","type":"PAYLOAD","l1":"1 62932U 25028E   26203.61185627  .00000974  00000-0  15797-3 0  9990","l2":"2 62932  98.1282 259.0541 0005744  65.7265 294.4542 14.73463557 77820"},{"id":"62934","name":"KINEIS-2B","type":"PAYLOAD","l1":"1 62934U 25028G   26203.58924917  .00000938  00000-0  15209-3 0  9999","l2":"2 62934  97.9650 255.8067 0004497  56.6739 303.4899 14.73463615 77870"},{"id":"63300","name":"KINEIS-4E","type":"PAYLOAD","l1":"1 63300U 25056A   26203.92921582  .00001333  00000-0  21853-3 0  9993","l2":"2 63300  97.9074 326.8400 0002764  72.9489 287.2021 14.72319479 72380"},{"id":"63301","name":"KINEIS-4C","type":"PAYLOAD","l1":"1 63301U 25056B   26203.60168241  .00001287  00000-0  21110-3 0  9998","l2":"2 63301  97.9128 326.7756 0003361 186.3805 173.7360 14.72340370 72345"},{"id":"63302","name":"KINEIS-4D","type":"PAYLOAD","l1":"1 63302U 25056C   26203.94501281  .00001464  00000-0  23977-3 0  9991","l2":"2 63302  97.9049 327.0745 0002104 186.9530 173.1649 14.72220655 72397"},{"id":"63303","name":"KINEIS-4A","type":"PAYLOAD","l1":"1 63303U 25056D   26203.91220287  .00001436  00000-0  23494-3 0  9996","l2":"2 63303  97.9143 327.0034 0002546 138.7082 221.4319 14.72300914 72388"},{"id":"63304","name":"KINEIS-4B","type":"PAYLOAD","l1":"1 63304U 25056E   26203.89485495  .00000403  00000-0  71440-4 0  9996","l2":"2 63304  97.9155 327.0450 0005919 169.0333 191.1005 14.72286835 72376"}]}