{"fetched_at":"2026-07-23T07:05:49.969Z","source":"https://celestrak.org/NORAD/elements/gp.php?NAME=KINEIS&FORMAT=JSON","constellation":"kineis","records":[{"OBJECT_NAME":"KINEIS-2D","OBJECT_ID":"2025-028C","EPOCH":"2026-07-22T13:57:14.789088","CLASSIFICATION_TYPE":"U","MEAN_MOTION":14.75784407,"ECCENTRICITY":0.00047944,"INCLINATION":97.9267,"RA_OF_ASC_NODE":255.3441,"ARG_OF_PERICENTER":93.5524,"MEAN_ANOMALY":266.6234,"EPHEMERIS_TYPE":0,"NORAD_CAT_ID":62930,"ELEMENT_SET_NO":999,"REV_AT_EPOCH":7793,"BSTAR":0.00018045779,"MEAN_MOTION_DOT":0.00001186,"MEAN_MOTION_DDOT":0},{"OBJECT_NAME":"KINEIS-2E","OBJECT_ID":"2025-028D","EPOCH":"2026-07-22T14:05:10.990464","CLASSIFICATION_TYPE":"U","MEAN_MOTION":14.77101092,"ECCENTRICITY":0.00020617,"INCLINATION":97.8936,"RA_OF_ASC_NODE":254.4647,"ARG_OF_PERICENTER":88.6066,"MEAN_ANOMALY":271.538,"EPHEMERIS_TYPE":0,"NORAD_CAT_ID":62931,"ELEMENT_SET_NO":999,"REV_AT_EPOCH":7800,"BSTAR":0.00015258221,"MEAN_MOTION_DOT":0.00001028,"MEAN_MOTION_DDOT":0},{"OBJECT_NAME":"KINEIS-2A","OBJECT_ID":"2025-028E","EPOCH":"2026-07-22T14:41:04.381728","CLASSIFICATION_TYPE":"U","MEAN_MOTION":14.73463557,"ECCENTRICITY":0.00057441,"INCLINATION":98.1282,"RA_OF_ASC_NODE":259.0541,"ARG_OF_PERICENTER":65.7265,"MEAN_ANOMALY":294.4542,"EPHEMERIS_TYPE":0,"NORAD_CAT_ID":62932,"ELEMENT_SET_NO":999,"REV_AT_EPOCH":7782,"BSTAR":0.00015797462,"MEAN_MOTION_DOT":0.00000974,"MEAN_MOTION_DDOT":0},{"OBJECT_NAME":"KINEIS-2B","OBJECT_ID":"2025-028G","EPOCH":"2026-07-22T14:08:31.128288","CLASSIFICATION_TYPE":"U","MEAN_MOTION":14.73463615,"ECCENTRICITY":0.00044965,"INCLINATION":97.965,"RA_OF_ASC_NODE":255.8067,"ARG_OF_PERICENTER":56.6739,"MEAN_ANOMALY":303.4899,"EPHEMERIS_TYPE":0,"NORAD_CAT_ID":62934,"ELEMENT_SET_NO":999,"REV_AT_EPOCH":7787,"BSTAR":0.00015208711,"MEAN_MOTION_DOT":0.00000938,"MEAN_MOTION_DDOT":0},{"OBJECT_NAME":"KINEIS-4E","OBJECT_ID":"2025-056A","EPOCH":"2026-07-22T22:18:04.246848","CLASSIFICATION_TYPE":"U","MEAN_MOTION":14.72319479,"ECCENTRICITY":0.00027642,"INCLINATION":97.9074,"RA_OF_ASC_NODE":326.84,"ARG_OF_PERICENTER":72.9489,"MEAN_ANOMALY":287.2021,"EPHEMERIS_TYPE":0,"NORAD_CAT_ID":63300,"ELEMENT_SET_NO":999,"REV_AT_EPOCH":7238,"BSTAR":0.00021852523,"MEAN_MOTION_DOT":0.00001333,"MEAN_MOTION_DDOT":0},{"OBJECT_NAME":"KINEIS-4C","OBJECT_ID":"2025-056B","EPOCH":"2026-07-22T14:26:25.360224","CLASSIFICATION_TYPE":"U","MEAN_MOTION":14.7234037,"ECCENTRICITY":0.00033611,"INCLINATION":97.9128,"RA_OF_ASC_NODE":326.7756,"ARG_OF_PERICENTER":186.3805,"MEAN_ANOMALY":173.736,"EPHEMERIS_TYPE":0,"NORAD_CAT_ID":63301,"ELEMENT_SET_NO":999,"REV_AT_EPOCH":7234,"BSTAR":0.00021109515,"MEAN_MOTION_DOT":0.00001287,"MEAN_MOTION_DDOT":0},{"OBJECT_NAME":"KINEIS-4D","OBJECT_ID":"2025-056C","EPOCH":"2026-07-22T22:40:49.106784","CLASSIFICATION_TYPE":"U","MEAN_MOTION":14.72220655,"ECCENTRICITY":0.00021039,"INCLINATION":97.9049,"RA_OF_ASC_NODE":327.0745,"ARG_OF_PERICENTER":186.953,"MEAN_ANOMALY":173.1649,"EPHEMERIS_TYPE":0,"NORAD_CAT_ID":63302,"ELEMENT_SET_NO":999,"REV_AT_EPOCH":7239,"BSTAR":0.00023976846,"MEAN_MOTION_DOT":0.00001464,"MEAN_MOTION_DDOT":0},{"OBJECT_NAME":"KINEIS-4A","OBJECT_ID":"2025-056D","EPOCH":"2026-07-22T21:53:34.327968","CLASSIFICATION_TYPE":"U","MEAN_MOTION":14.72300914,"ECCENTRICITY":0.00025462,"INCLINATION":97.9143,"RA_OF_ASC_NODE":327.0034,"ARG_OF_PERICENTER":138.7082,"MEAN_ANOMALY":221.4319,"EPHEMERIS_TYPE":0,"NORAD_CAT_ID":63303,"ELEMENT_SET_NO":999,"REV_AT_EPOCH":7238,"BSTAR":0.00023493516,"MEAN_MOTION_DOT":0.00001436,"MEAN_MOTION_DDOT":0},{"OBJECT_NAME":"KINEIS-4B","OBJECT_ID":"2025-056E","EPOCH":"2026-07-22T21:28:35.467680","CLASSIFICATION_TYPE":"U","MEAN_MOTION":14.72286835,"ECCENTRICITY":0.00059193,"INCLINATION":97.9155,"RA_OF_ASC_NODE":327.045,"ARG_OF_PERICENTER":169.0333,"MEAN_ANOMALY":191.1005,"EPHEMERIS_TYPE":0,"NORAD_CAT_ID":63304,"ELEMENT_SET_NO":999,"REV_AT_EPOCH":7237,"BSTAR":0.000071440481,"MEAN_MOTION_DOT":0.00000403,"MEAN_MOTION_DDOT":0}]}
